CCSDS_OMM_VERS = 2.0
CREATION_DATE  = 
ORIGINATOR     = 

OBJECT_NAME    = SL-16 R/B
OBJECT_ID      = 1996-051B
CENTER_NAME    = EARTH
REF_FRAME      = TEME
TIME_SYSTEM    = UTC
MEAN_ELEMENT_THEORY = SGP/SGP4

EPOCH          = 2025-11-08T11:51:17.070048
MEAN_MOTION    = 14.12392369
ECCENTRICITY   = .0017855
INCLINATION    = 70.7597
RA_OF_ASC_NODE = 71.7669
ARG_OF_PERICENTER = 304.7736
MEAN_ANOMALY   = 55.1703

EPHEMERIS_TYPE = 0
CLASSIFICATION_TYPE = U
NORAD_CAT_ID   = 24298
ELEMENT_SET_NO = 999
REV_AT_EPOCH   = 50453
BSTAR          = .40759E-5
MEAN_MOTION_DOT = -.42E-6
MEAN_MOTION_DDOT = 0

CCSDS_OMM_VERS = 2.0
CREATION_DATE  = 
ORIGINATOR     = 

OBJECT_NAME    = ORBVIEW 2 (SEASTAR)
OBJECT_ID      = 1997-037A
CENTER_NAME    = EARTH
REF_FRAME      = TEME
TIME_SYSTEM    = UTC
MEAN_ELEMENT_THEORY = SGP/SGP4

EPOCH          = 2025-11-08T09:51:03.634272
MEAN_MOTION    = 14.35376287
ECCENTRICITY   = .0003101
INCLINATION    = 98.8446
RA_OF_ASC_NODE = 108.6252
ARG_OF_PERICENTER = 68.6750
MEAN_ANOMALY   = 291.4765

EPHEMERIS_TYPE = 0
CLASSIFICATION_TYPE = U
NORAD_CAT_ID   = 24883
ELEMENT_SET_NO = 999
REV_AT_EPOCH   = 49107
BSTAR          = .19571E-3
MEAN_MOTION_DOT = .515E-5
MEAN_MOTION_DDOT = 0

CCSDS_OMM_VERS = 2.0
CREATION_DATE  = 
ORIGINATOR     = 

OBJECT_NAME    = SL-16 R/B
OBJECT_ID      = 1998-043G
CENTER_NAME    = EARTH
REF_FRAME      = TEME
TIME_SYSTEM    = UTC
MEAN_ELEMENT_THEORY = SGP/SGP4

EPOCH          = 2025-11-08T11:42:22.699008
MEAN_MOTION    = 14.26012096
ECCENTRICITY   = .0010091
INCLINATION    = 98.8067
RA_OF_ASC_NODE = 260.1243
ARG_OF_PERICENTER = 12.3559
MEAN_ANOMALY   = 347.7866

EPHEMERIS_TYPE = 0
CLASSIFICATION_TYPE = U
NORAD_CAT_ID   = 25400
ELEMENT_SET_NO = 999
REV_AT_EPOCH   = 42171
BSTAR          = .77472E-4
MEAN_MOTION_DOT = .14E-5
MEAN_MOTION_DDOT = 0

CCSDS_OMM_VERS = 2.0
CREATION_DATE  = 
ORIGINATOR     = 

OBJECT_NAME    = SL-16 R/B
OBJECT_ID      = 1998-045B
CENTER_NAME    = EARTH
REF_FRAME      = TEME
TIME_SYSTEM    = UTC
MEAN_ELEMENT_THEORY = SGP/SGP4

EPOCH          = 2025-11-08T10:28:38.674272
MEAN_MOTION    = 14.16168879
ECCENTRICITY   = .0008821
INCLINATION    = 71.0114
RA_OF_ASC_NODE = 76.5617
ARG_OF_PERICENTER = 224.0214
MEAN_ANOMALY   = 136.0208

EPHEMERIS_TYPE = 0
CLASSIFICATION_TYPE = U
NORAD_CAT_ID   = 25407
ELEMENT_SET_NO = 999
REV_AT_EPOCH   = 40993
BSTAR          = .32447E-4
MEAN_MOTION_DOT = .16E-6
MEAN_MOTION_DDOT = 0

CCSDS_OMM_VERS = 2.0
CREATION_DATE  = 
ORIGINATOR     = 

OBJECT_NAME    = ISS (ZARYA)
OBJECT_ID      = 1998-067A
CENTER_NAME    = EARTH
REF_FRAME      = TEME
TIME_SYSTEM    = UTC
MEAN_ELEMENT_THEORY = SGP/SGP4

EPOCH          = 2025-11-08T10:05:23.857728
MEAN_MOTION    = 15.49452868
ECCENTRICITY   = .0004093
INCLINATION    = 51.6332
RA_OF_ASC_NODE = 312.3676
ARG_OF_PERICENTER = 47.8963
MEAN_ANOMALY   = 312.2373

EPHEMERIS_TYPE = 0
CLASSIFICATION_TYPE = U
NORAD_CAT_ID   = 25544
ELEMENT_SET_NO = 999
REV_AT_EPOCH   = 53753
BSTAR          = .24734E-3
MEAN_MOTION_DOT = .13418E-3
MEAN_MOTION_DDOT = 0

CCSDS_OMM_VERS = 2.0
CREATION_DATE  = 
ORIGINATOR     = 

OBJECT_NAME    = CZ-4B R/B
OBJECT_ID      = 1999-025C
CENTER_NAME    = EARTH
REF_FRAME      = TEME
TIME_SYSTEM    = UTC
MEAN_ELEMENT_THEORY = SGP/SGP4

EPOCH          = 2025-11-08T02:35:15.776736
MEAN_MOTION    = 14.18230163
ECCENTRICITY   = .00366215
INCLINATION    = 98.6821
RA_OF_ASC_NODE = 354.1533
ARG_OF_PERICENTER = 336.1731
MEAN_ANOMALY   = 77.7009

EPHEMERIS_TYPE = 0
CLASSIFICATION_TYPE = U
NORAD_CAT_ID   = 25732
ELEMENT_SET_NO = 999
REV_AT_EPOCH   = 37093
BSTAR          = .7982669E-4
MEAN_MOTION_DOT = .122E-5
MEAN_MOTION_DDOT = 0

CCSDS_OMM_VERS = 2.0
CREATION_DATE  = 
ORIGINATOR     = 

OBJECT_NAME    = OKEAN-O
OBJECT_ID      = 1999-039A
CENTER_NAME    = EARTH
REF_FRAME      = TEME
TIME_SYSTEM    = UTC
MEAN_ELEMENT_THEORY = SGP/SGP4

EPOCH          = 2025-11-08T04:14:26.327040
MEAN_MOTION    = 14.80071956
ECCENTRICITY   = .0001575
INCLINATION    = 97.9653
RA_OF_ASC_NODE = 8.1700
ARG_OF_PERICENTER = 70.3340
MEAN_ANOMALY   = 289.8042

EPHEMERIS_TYPE = 0
CLASSIFICATION_TYPE = U
NORAD_CAT_ID   = 25860
ELEMENT_SET_NO = 999
REV_AT_EPOCH   = 41641
BSTAR          = .17067E-3
MEAN_MOTION_DOT = .1241E-4
MEAN_MOTION_DDOT = 0

CCSDS_OMM_VERS = 2.0
CREATION_DATE  = 
ORIGINATOR     = 

OBJECT_NAME    = SL-16 R/B
OBJECT_ID      = 1999-039B
CENTER_NAME    = EARTH
REF_FRAME      = TEME
TIME_SYSTEM    = UTC
MEAN_ELEMENT_THEORY = SGP/SGP4

EPOCH          = 2025-11-08T03:18:08.967456
MEAN_MOTION    = 14.81509279
ECCENTRICITY   = .00135903
INCLINATION    = 98.0176
RA_OF_ASC_NODE = 6.2783
ARG_OF_PERICENTER = 294.0919
MEAN_ANOMALY   = 65.8871

EPHEMERIS_TYPE = 0
CLASSIFICATION_TYPE = U
NORAD_CAT_ID   = 25861
ELEMENT_SET_NO = 999
REV_AT_EPOCH   = 41886
BSTAR          = .12849592E-3
MEAN_MOTION_DOT = .954E-5
MEAN_MOTION_DDOT = 0

CCSDS_OMM_VERS = 2.0
CREATION_DATE  = 
ORIGINATOR     = 

OBJECT_NAME    = DELTA 2 R/B
OBJECT_ID      = 1999-041E
CENTER_NAME    = EARTH
REF_FRAME      = TEME
TIME_SYSTEM    = UTC
MEAN_ELEMENT_THEORY = SGP/SGP4

EPOCH          = 2025-11-07T17:31:38.269920
MEAN_MOTION    = 14.11274438
ECCENTRICITY   = .05047906
INCLINATION    = 51.7632
RA_OF_ASC_NODE = 68.1806
ARG_OF_PERICENTER = 348.6016
MEAN_ANOMALY   = 10.3819

EPHEMERIS_TYPE = 0
CLASSIFICATION_TYPE = U
NORAD_CAT_ID   = 25876
ELEMENT_SET_NO = 999
REV_AT_EPOCH   = 34580
BSTAR          = .25691618E-3
MEAN_MOTION_DOT = .1354E-4
MEAN_MOTION_DDOT = 0

CCSDS_OMM_VERS = 2.0
CREATION_DATE  = 
ORIGINATOR     = 

OBJECT_NAME    = HELIOS 1B
OBJECT_ID      = 1999-064A
CENTER_NAME    = EARTH
REF_FRAME      = TEME
TIME_SYSTEM    = UTC
MEAN_ELEMENT_THEORY = SGP/SGP4

EPOCH          = 2025-11-08T06:54:08.993376
MEAN_MOTION    = 14.87063293
ECCENTRICITY   = .00025677
INCLINATION    = 98.1754
RA_OF_ASC_NODE = 205.9361
ARG_OF_PERICENTER = 89.3465
MEAN_ANOMALY   = 270.8045

EPHEMERIS_TYPE = 0
CLASSIFICATION_TYPE = U
NORAD_CAT_ID   = 25977
ELEMENT_SET_NO = 999
REV_AT_EPOCH   = 66721
BSTAR          = .32293984E-3
MEAN_MOTION_DOT = .2839E-4
MEAN_MOTION_DDOT = 0

CCSDS_OMM_VERS = 2.0
CREATION_DATE  = 
ORIGINATOR     = 

OBJECT_NAME    = TERRA
OBJECT_ID      = 1999-068A
CENTER_NAME    = EARTH
REF_FRAME      = TEME
TIME_SYSTEM    = UTC
MEAN_ELEMENT_THEORY = SGP/SGP4

EPOCH          = 2025-11-08T10:03:54.153792
MEAN_MOTION    = 14.60890769
ECCENTRICITY   = .0002071
INCLINATION    = 97.9797
RA_OF_ASC_NODE = 5.3535
ARG_OF_PERICENTER = 172.7099
MEAN_ANOMALY   = 244.5109

EPHEMERIS_TYPE = 0
CLASSIFICATION_TYPE = U
NORAD_CAT_ID   = 25994
ELEMENT_SET_NO = 999
REV_AT_EPOCH   = 37737
BSTAR          = .17831E-3
MEAN_MOTION_DOT = .828E-5
MEAN_MOTION_DDOT = 0

CCSDS_OMM_VERS = 2.0
CREATION_DATE  = 
ORIGINATOR     = 

OBJECT_NAME    = SL-16 R/B
OBJECT_ID      = 2000-006B
CENTER_NAME    = EARTH
REF_FRAME      = TEME
TIME_SYSTEM    = UTC
MEAN_ELEMENT_THEORY = SGP/SGP4

EPOCH          = 2025-11-08T11:47:21.274080
MEAN_MOTION    = 14.15801972
ECCENTRICITY   = .0016614
INCLINATION    = 71.0041
RA_OF_ASC_NODE = 352.6712
ARG_OF_PERICENTER = 357.5269
MEAN_ANOMALY   = 2.5769

EPHEMERIS_TYPE = 0
CLASSIFICATION_TYPE = U
NORAD_CAT_ID   = 26070
ELEMENT_SET_NO = 999
REV_AT_EPOCH   = 33140
BSTAR          = .5559E-4
MEAN_MOTION_DOT = .62E-6
MEAN_MOTION_DDOT = 0

