SL-16 R/B               
1 24298U 96051B   25312.49394757 -.00000042  00000+0  40759-5 0  9993
2 24298  70.7597  71.7669 0017855 304.7736  55.1703 14.12392369504532
ORBVIEW 2 (SEASTAR)     
1 24883U 97037A   25312.41045873  .00000515  00000+0  19571-3 0  9992
2 24883  98.8446 108.6252 0003101  68.6750 291.4765 14.35376287491078
SL-16 R/B               
1 25400U 98043G   25312.48776272  .00000140  00000+0  77472-4 0  9996
2 25400  98.8067 260.1243 0010091  12.3559 347.7866 14.26012096421712
SL-16 R/B               
1 25407U 98045B   25312.43655873  .00000016  00000+0  32447-4 0  9998
2 25407  71.0114  76.5617 0008821 224.0214 136.0208 14.16168879409936
ISS (ZARYA)             
1 25544U 98067A   25312.42041502  .00013418  00000+0  24734-3 0  9990
2 25544  51.6332 312.3676 0004093  47.8963 312.2373 15.49452868537539
CZ-4B R/B               
1 25732U 99025C   25312.10782149  .00000122  00000+0  79827-4 0  9990
2 25732  98.6821 354.1533 0036621 336.1731  77.7009 14.18230163370932
OKEAN-O                 
1 25860U 99039A   25312.17669360  .00001241  00000+0  17067-3 0  9993
2 25860  97.9653   8.1700 0001575  70.3340 289.8042 14.80071956416413
SL-16 R/B               
1 25861U 99039B   25312.13760379  .00000954  00000+0  12850-3 0  9997
2 25861  98.0176   6.2783 0013590 294.0919  65.8871 14.81509279418861
DELTA 2 R/B             
1 25876U 99041E   25311.73030405  .00001354  00000+0  25692-3 0  9994
2 25876  51.7632  68.1806 0504790 348.6016  10.3819 14.11274438345803
HELIOS 1B               
1 25977U 99064A   25312.28760409  .00002839  00000+0  32294-3 0  9991
2 25977  98.1754 205.9361 0002567  89.3465 270.8045 14.87063293667218
TERRA                   
1 25994U 99068A   25312.41937678  .00000828  00000+0  17831-3 0  9999
2 25994  97.9797   5.3535 0002071 172.7099 244.5109 14.60890769377377
SL-16 R/B               
1 26070U 00006B   25312.49121845  .00000062  00000+0  55590-4 0  9993
2 26070  71.0041 352.6712 0016614 357.5269   2.5769 14.15801972331409
